[{"OBJECT_NAME":"STARLINK-4625","OBJECT_ID":"2022-105AM","EPOCH":"2026-03-09T15:58:26.969952","MEAN_MOTION":15.01261736,"ECCENTRICITY":0.00046582,"INCLINATION":97.6012,"RA_OF_ASC_NODE":310.181,"ARG_OF_PERICENTER":56.8765,"MEAN_ANOMALY":303.2906,"EPHEMERIS_TYPE":0,"CLASSIFICATION_TYPE":"U","NORAD_CAT_ID":53683,"ELEMENT_SET_NO":999,"REV_AT_EPOCH":19323,"BSTAR":-3.288093e-6,"MEAN_MOTION_DOT":-1.01e-6,"MEAN_MOTION_DDOT":0},{"OBJECT_NAME":"CZ-2D DEB","OBJECT_ID":"2017-060D","EPOCH":"2026-03-09T09:20:51.218016","MEAN_MOTION":14.94784327,"ECCENTRICITY":0.00290231,"INCLINATION":98.2151,"RA_OF_ASC_NODE":220.4386,"ARG_OF_PERICENTER":85.7344,"MEAN_ANOMALY":274.7191,"EPHEMERIS_TYPE":0,"CLASSIFICATION_TYPE":"U","NORAD_CAT_ID":44611,"ELEMENT_SET_NO":999,"REV_AT_EPOCH":45223,"BSTAR":0.00060475076,"MEAN_MOTION_DOT":6.57e-5,"MEAN_MOTION_DDOT":0}]
